STARLINK-34755          
1 64940U 25158J   25215.91668981 -.01578321  00000+0 -91507-2 0  9999
2 64940  97.5970  77.2555 0001819  77.7777  73.7899 15.81376626  2396
STARLINK-34740          
1 64941U 25158K   25215.91668981 -.01584936  00000+0 -91930-2 0  9999
2 64941  97.5968  77.2568 0001797  79.7549  73.7714 15.81380489  2390
STARLINK-34742          
1 64942U 25158L   25215.91668981 -.01594900  00000+0 -92586-2 0  9990
2 64942  97.5968  77.2577 0001838  80.2363  75.2608 15.81381165  2456
STARLINK-34719          
1 64943U 25158M   25215.91668981 -.01606111  00000+0 -93273-2 0  9993
2 64943  97.5971  77.2589 0001815  80.7057  76.7121 15.81394946  2451
STARLINK-34373          
1 64944U 25158N   25215.91668981 -.01625909  00000+0 -94518-2 0  9993
2 64944  97.5969  77.2594 0001828  82.2101  77.1363 15.81411791  2390
STARLINK-34758          
1 64945U 25158P   25215.91668981 -.01641969  00000+0 -95630-2 0  9994
2 64945  97.5969  77.2602 0001751  80.6415  80.7262 15.81404278  2396
STARLINK-34753          
1 64946U 25158Q   25215.91668981 -.01639335  00000+0 -95375-2 0  9995
2 64946  97.5970  77.2610 0001864  78.9800  84.2633 15.81420425  2394
STARLINK-34747          
1 64947U 25158R   25215.91668981 -.01665263  00000+0 -97097-2 0  9998
2 64947  97.5971  77.2620 0001805  80.4162  84.8229 15.81425126  2458
STARLINK-34630          
1 64948U 25158S   25215.91668981 -.01667355  00000+0 -97271-2 0  9997
2 64948  97.5968  77.2626 0001810  80.7376  86.4819 15.81417737  2392
STARLINK-34689          
1 64949U 25158T   25215.91668981 -.01685636  00000+0 -98423-2 0  9990
2 64949  97.5971  77.2640 0001880  82.0896  87.0527 15.81434427  2457
STARLINK-34586          
1 64950U 25158U   25215.91668981 -.01699357  00000+0 -99288-2 0  9997
2 64950  97.5970  77.2647 0001885  84.1225  86.9478 15.81447960  2391
STARLINK-34738          
1 64951U 25158V   25215.91668981 -.01702173  00000+0 -99516-2 0  9993
2 64951  97.5971  77.2655 0001878  82.2659  90.7921 15.81440004  2392
STARLINK-34744          
1 64952U 25158W   25215.91668981 -.01732606  00000+0 -10151-1 0  9995
2 64952  97.5971  77.2673 0001898  83.0832  93.8744 15.81455544  2399
STARLINK-34701          
1 64953U 25158X   25215.91668981 -.01712213  00000+0 -10014-1 0  9996
2 64953  97.5972  77.2669 0001910  85.8479  89.1319 15.81451759  2398
STARLINK-34761          
1 64954U 25158Y   25215.91668981 -.01747237  00000+0 -10255-1 0  9998
2 64954  97.5974  77.2686 0001838  82.6598  96.3082 15.81447842  2391
STARLINK-34732          
1 64955U 25158Z   25215.91668981 -.01790165  00000+0 -10295-1 0  9991
2 64955  97.5975  77.2695 0001958  84.7496  96.2071 15.81440478  2391
HULIANWANG DIGUI 5A     
1 64956U 25159A   25215.92385151  .00000131  00000+0  13329-3 0  9996
2 64956  86.4951  30.2532 0008852 195.8570 164.2313 13.68677190  1018
HULIANWANG DIGUI 5B     
1 64957U 25159B   25215.92332787  .00000154  00000+0  15997-3 0  9992
2 64957  86.4970  30.2561 0008382 194.4817 165.6103 13.68770702  1014
HULIANWANG DIGUI 5C     
1 64958U 25159C   25215.92235774  .00000151  00000+0  15578-3 0  9993
2 64958  86.4914  30.2453 0008059 190.2028 169.8969 13.68946263  1015
HULIANWANG DIGUI 5D     
1 64959U 25159D   25215.92182944  .00000115  00000+0  11404-3 0  9998
2 64959  86.4971  30.2554 0007515 184.1477 175.9621 13.69045210  1013
HULIANWANG DIGUI 5E     
1 64960U 25159E   25215.92118010  .00000070  00000+0  62145-4 0  9992
2 64960  86.4949  30.2508 0007376 182.7476 177.3644 13.69164755  1014
CZ-6A R/B               
1 64961U 25159F   25215.93233505  .00000077  00000+0  41936-4 0  9993
2 64961  86.5051  30.1429 0104875  92.8785 268.4396 13.94023810  1028
KUNPENG-03              
1 64962U 25160A   25215.94173041  .00015074  00000+0  68038-3 0  9999
2 64962  97.3993 290.5093 0010606 246.6266 113.3854 15.21035916   875
SQX-1 R/B               
1 64963U 25160B   25215.92467834  .00049983  28579-5  30055-3 0  9995
2 64963  97.4408 290.8722 0168050 333.4811  25.7918 15.60662452   903
HULIANWANG DIGUI 6A     
1 65043U 25162A   25215.92004039  .00000034  00000+0  11298-3 0  9996
2 65043  50.0022 356.4510 0008183 281.5408  78.4579 14.05832648   642
HULIANWANG DIGUI 6B     
1 65044U 25162B   25215.91986275 -.00000027  00000+0  76104-4 0  9998
2 65044  50.0029 356.4511 0006909 275.4917  84.5200 14.05895234   652
HULIANWANG DIGUI 6C     
1 65045U 25162C   25215.91954983  .00000027  00000+0  10844-3 0  9997
2 65045  49.9994 356.4459 0007375 283.3701  76.6382 14.05990003   652
HULIANWANG DIGUI 6D     
1 65046U 25162D   25215.91934212  .00000034  00000+0  11312-3 0  9990
2 65046  50.0012 356.4469 0006189 281.1411  78.8798 14.06043988   651
HULIANWANG DIGUI 6E     
1 65047U 25162E   25215.91913766  .00000021  00000+0  10477-3 0  9999
2 65047  50.0039 356.4486 0007820 290.2264  69.7800 14.06113327   658
HULIANWANG DIGUI 6F     
1 65048U 25162F   25215.91872237  .00000007  00000+0  96342-4 0  9997
2 65048  50.0072 356.4499 0005835 288.6836  71.3435 14.06239926   657
HULIANWANG DIGUI 6G     
1 65049U 25162G   25215.91858967  .00000012  00000+0  99338-4 0  9996
2 65049  50.0088 356.4510 0006953 294.0079  66.0098 14.06283273   651
HULIANWANG DIGUI 6H     
1 65050U 25162H   25215.91826650  .00000054  00000+0  12437-3 0  9992
2 65050  50.0054 356.4457 0007132 299.1059  60.9132 14.06378494   652
HULIANWANG DIGUI 6J     
1 65051U 25162J   25215.91812330 -.00000021  00000+0  78848-4 0  9997
2 65051  50.0064 356.4462 0005616 296.0336  63.9991 14.06425671   655
CZ-8A R/B               
1 65052U 25162K   25215.91173245 -.00000607  00000+0 -15488-3 0  9994
2 65052  50.0049 355.7397 0118818  99.4099 262.0271 14.30548526   664
NISAR                   
1 65053U 25163A   25215.91056093  .00000241  00000+0  80278-4 0  9999
2 65053  98.4437  42.7661 0012280 257.0906 102.8914 14.45883917   638
GSLV R/B                
1 65054U 25163B   25215.69834985  .00000167  00000+0  57661-4 0  9996
2 65054  98.4388  42.5601 0011431 298.6909  61.3134 14.47485868   602
PRSS-1                  
1 65055U 25164A   25215.84248305  .00004123  00000+0  29521-3 0  9999
2 65055  41.1305 276.9754 0006305 261.2646  98.7454 15.05289256   547
CREW DRAGON 11          
1 65077U 25166A   25215.46272211  .00014619  00000+0  26065-3 0  9997
2 65077  51.6349  72.7526 0001790 135.4885 294.4671 15.50326680522496
